start=new Date('2021-09-15T00:00:00.000Z').valueOf();
sats=[{"MEAN_MOTION_DOT":"-0.00000706","GP_ID":"184723275","SITE":"AFETR","COUNTRY_CODE":"US","MEAN_ANOMALY":"253.8355","OBJECT_ID":"2021-027AS","BSTAR":"-0.00002851700000","TLE_LINE1":"1 48132U 21027AS  21257.41394638 -.00000706  00000-0 -28517-4 0  9997","APOAPSIS":"547.730","TIME_SYSTEM":"UTC","ECCENTRICITY":"0.00007320","EPHEMERIS_TYPE":"0","SEMIMAJOR_AXIS":"6925.358","REV_AT_EPOCH":"2563","RA_OF_ASC_NODE":"321.6269","DECAY_DATE":null,"MEAN_MOTION":"15.06397044","ARG_OF_PERICENTER":"106.2715","TLE_LINE2":"2 48132  53.0568 321.6269 0000732 106.2715 253.8355 15.06397044 25636","RCS_SIZE":"LARGE","NORAD_CAT_ID":"48132","EPOCH":"2021-09-14T09:56:04.967232","PERIAPSIS":"546.716","CENTER_NAME":"EARTH","REF_FRAME":"TEME","MEAN_MOTION_DDOT":"0.0000000000000","LAUNCH_DATE":"2021-04-07","MEAN_ELEMENT_THEORY":"SGP4","OBJECT_TYPE":"PAYLOAD","PERIOD":"95.592","OBJECT_NAME":"STARLINK-2474","CLASSIFICATION_TYPE":"U","INCLINATION":"53.0568","ELEMENT_SET_NO":"999","FILE":"3115650"},{"GP_ID":"184723525","MEAN_MOTION_DOT":"0.00001130","COUNTRY_CODE":"US","MEAN_ANOMALY":"248.8715","OBJECT_ID":"2021-027AT","SITE":"AFETR","ECCENTRICITY":"0.00009380","EPHEMERIS_TYPE":"0","SEMIMAJOR_AXIS":"6925.342","TLE_LINE1":"1 48133U 21027AT  21257.87467060  .00001130  00000-0  94735-4 0  9993","APOAPSIS":"547.857","TIME_SYSTEM":"UTC","BSTAR":"0.00009473500000","RA_OF_ASC_NODE":"319.5586","DECAY_DATE":null,"MEAN_MOTION":"15.06402132","REV_AT_EPOCH":"2571","TLE_LINE2":"2 48133  53.0558 319.5586 0000938 111.2374 248.8715 15.06402132 25717","RCS_SIZE":"LARGE","ARG_OF_PERICENTER":"111.2374","CENTER_NAME":"EARTH","REF_FRAME":"TEME","MEAN_MOTION_DDOT":"0.0000000000000","NORAD_CAT_ID":"48133","EPOCH":"2021-09-14T20:59:31.539840","PERIAPSIS":"546.557","MEAN_ELEMENT_THEORY":"SGP4","OBJECT_TYPE":"PAYLOAD","PERIOD":"95.592","LAUNCH_DATE":"2021-04-07","INCLINATION":"53.0558","ELEMENT_SET_NO":"999","FILE":"3115650","OBJECT_NAME":"STARLINK-2475","CLASSIFICATION_TYPE":"U"},{"LAUNCH_DATE":"2021-04-07","OBJECT_TYPE":"PAYLOAD","PERIOD":"95.592","MEAN_ELEMENT_THEORY":"SGP4","OBJECT_NAME":"STARLINK-2476","CLASSIFICATION_TYPE":"U","FILE":"3115650","INCLINATION":"53.0567","ELEMENT_SET_NO":"999","ARG_OF_PERICENTER":"99.1350","TLE_LINE2":"2 48134  53.0567 320.8154 0000932  99.1350 260.9744 15.06397256 25667","RCS_SIZE":"LARGE","PERIAPSIS":"546.577","NORAD_CAT_ID":"48134","EPOCH":"2021-09-14T14:16:08.987808","REF_FRAME":"TEME","MEAN_MOTION_DDOT":"0.0000000000000","CENTER_NAME":"EARTH","TLE_LINE1":"1 48134U 21027AU  21257.59454847 -.00000478  00000-0 -13211-4 0  9998","APOAPSIS":"547.867","TIME_SYSTEM":"UTC","BSTAR":"-0.00001321100000","SEMIMAJOR_AXIS":"6925.357","EPHEMERIS_TYPE":"0","ECCENTRICITY":"0.00009320","REV_AT_EPOCH":"2566","MEAN_MOTION":"15.06397256","RA_OF_ASC_NODE":"320.8154","DECAY_DATE":null,"MEAN_MOTION_DOT":"-0.00000478","GP_ID":"184723777","SITE":"AFETR","COUNTRY_CODE":"US","MEAN_ANOMALY":"260.9744","OBJECT_ID":"2021-027AU"},{"ELEMENT_SET_NO":"999","INCLINATION":"53.0562","FILE":"3115650","CLASSIFICATION_TYPE":"U","OBJECT_NAME":"STARLINK-2478","MEAN_ELEMENT_THEORY":"SGP4","PERIOD":"95.593","OBJECT_TYPE":"PAYLOAD","LAUNCH_DATE":"2021-04-07","CENTER_NAME":"EARTH","MEAN_MOTION_DDOT":"0.0000000000000","REF_FRAME":"TEME","EPOCH":"2021-09-14T12:20:01.167360","NORAD_CAT_ID":"48135","PERIAPSIS":"546.643","TLE_LINE2":"2 48135  53.0562 326.1799 0000876 103.7355 256.3731 15.06388353 25585","RCS_SIZE":"LARGE","ARG_OF_PERICENTER":"103.7355","DECAY_DATE":null,"RA_OF_ASC_NODE":"326.1799","MEAN_MOTION":"15.06388353","REV_AT_EPOCH":"2558","EPHEMERIS_TYPE":"0","ECCENTRICITY":"0.00008760","SEMIMAJOR_AXIS":"6925.384","TLE_LINE1":"1 48135U 21027AV  21257.51390240 -.00000556  00000-0 -18439-4 0  9991","APOAPSIS":"547.856","BSTAR":"-0.00001843900000","TIME_SYSTEM":"UTC","COUNTRY_CODE":"US","MEAN_ANOMALY":"256.3731","OBJECT_ID":"2021-027AV","SITE":"AFETR","GP_ID":"184724028","MEAN_MOTION_DOT":"-0.00000556"},{"REV_AT_EPOCH":"2566","RA_OF_ASC_NODE":"320.9925","DECAY_DATE":null,"MEAN_MOTION":"15.06396930","APOAPSIS":"547.820","TLE_LINE1":"1 48136U 21027AW  21257.55401159 -.00000568  00000-0 -19284-4 0  9990","TIME_SYSTEM":"UTC","BSTAR":"-0.00001928400000","ECCENTRICITY":"0.00008620","EPHEMERIS_TYPE":"0","SEMIMAJOR_AXIS":"6925.358","SITE":"AFETR","COUNTRY_CODE":"US","MEAN_ANOMALY":"246.1635","OBJECT_ID":"2021-027AW","MEAN_MOTION_DOT":"-0.00000568","GP_ID":"184722776","CLASSIFICATION_TYPE":"U","OBJECT_NAME":"STARLINK-2479","ELEMENT_SET_NO":"999","INCLINATION":"53.0559","FILE":"3115650","LAUNCH_DATE":"2021-04-07","MEAN_ELEMENT_THEORY":"SGP4","PERIOD":"95.592","OBJECT_TYPE":"PAYLOAD","EPOCH":"2021-09-14T13:17:46.601376","NORAD_CAT_ID":"48136","PERIAPSIS":"546.626","CENTER_NAME":"EARTH","MEAN_MOTION_DDOT":"0.0000000000000","REF_FRAME":"TEME","ARG_OF_PERICENTER":"113.9444","TLE_LINE2":"2 48136  53.0559 320.9925 0000862 113.9444 246.1635 15.06396930 25661","RCS_SIZE":"LARGE"},{"TLE_LINE1":"1 48137U 21027AX  21257.84609952 -.00000492  00000-0 -14143-4 0  9999","TIME_SYSTEM":"UTC","APOAPSIS":"547.642","BSTAR":"-0.00001414300000","EPHEMERIS_TYPE":"0","ECCENTRICITY":"0.00005660","SEMIMAJOR_AXIS":"6925.385","REV_AT_EPOCH":"2598","DECAY_DATE":null,"RA_OF_ASC_NODE":"299.7337","MEAN_MOTION":"15.06388043","MEAN_MOTION_DOT":"-0.00000492","GP_ID":"184723026","SITE":"AFETR","COUNTRY_CODE":"US","OBJECT_ID":"2021-027AX","MEAN_ANOMALY":"245.2590","LAUNCH_DATE":"2021-04-07","MEAN_ELEMENT_THEORY":"SGP4","OBJECT_TYPE":"PAYLOAD","PERIOD":"95.593","OBJECT_NAME":"STARLINK-2480","CLASSIFICATION_TYPE":"U","INCLINATION":"53.0442","ELEMENT_SET_NO":"999","FILE":"3115650","ARG_OF_PERICENTER":"114.8458","RCS_SIZE":"LARGE","TLE_LINE2":"2 48137  53.0442 299.7337 0000566 114.8458 245.2590 15.06388043 25980","NORAD_CAT_ID":"48137","EPOCH":"2021-09-14T20:18:22.998528","PERIAPSIS":"546.858","CENTER_NAME":"EARTH","REF_FRAME":"TEME","MEAN_MOTION_DDOT":"0.0000000000000"},{"APOAPSIS":"547.870","TLE_LINE1":"1 48138U 21027AY  21257.87100089 -.00000430  00000-0 -99899-5 0  9994","TIME_SYSTEM":"UTC","BSTAR":"-0.00000998990000","SEMIMAJOR_AXIS":"6925.391","EPHEMERIS_TYPE":"0","ECCENTRICITY":"0.00008870","REV_AT_EPOCH":"2571","MEAN_MOTION":"15.06386086","RA_OF_ASC_NODE":"319.5769","DECAY_DATE":null,"MEAN_MOTION_DOT":"-0.00000430","GP_ID":"184724277","SITE":"AFETR","OBJECT_ID":"2021-027AY","COUNTRY_CODE":"US","MEAN_ANOMALY":"248.1040","LAUNCH_DATE":"2021-04-07","PERIOD":"95.593","OBJECT_TYPE":"PAYLOAD","MEAN_ELEMENT_THEORY":"SGP4","CLASSIFICATION_TYPE":"U","OBJECT_NAME":"STARLINK-2481","FILE":"3115650","ELEMENT_SET_NO":"999","INCLINATION":"53.0566","ARG_OF_PERICENTER":"112.0043","TLE_LINE2":"2 48138  53.0566 319.5769 0000887 112.0043 248.1040 15.06386086 25712","RCS_SIZE":"LARGE","PERIAPSIS":"546.642","EPOCH":"2021-09-14T20:54:14.476896","NORAD_CAT_ID":"48138","MEAN_MOTION_DDOT":"0.0000000000000","REF_FRAME":"TEME","CENTER_NAME":"EARTH"},{"DECAY_DATE":null,"RA_OF_ASC_NODE":"301.6979","MEAN_MOTION":"15.06392766","REV_AT_EPOCH":"2592","EPHEMERIS_TYPE":"0","ECCENTRICITY":"0.00005660","SEMIMAJOR_AXIS":"6925.371","TLE_LINE1":"1 48139U 21027AZ  21257.39735362 -.00000833  00000-0 -37071-4 0  9990","APOAPSIS":"547.628","TIME_SYSTEM":"UTC","BSTAR":"-0.00003707100000","COUNTRY_CODE":"US","MEAN_ANOMALY":"222.2337","OBJECT_ID":"2021-027AZ","SITE":"AFETR","GP_ID":"184724528","MEAN_MOTION_DOT":"-0.00000833","INCLINATION":"53.0550","ELEMENT_SET_NO":"999","FILE":"3115650","OBJECT_NAME":"STARLINK-2482","CLASSIFICATION_TYPE":"U","MEAN_ELEMENT_THEORY":"SGP4","OBJECT_TYPE":"PAYLOAD","PERIOD":"95.593","LAUNCH_DATE":"2021-04-07","CENTER_NAME":"EARTH","REF_FRAME":"TEME","MEAN_MOTION_DDOT":"0.0000000000000","NORAD_CAT_ID":"48139","EPOCH":"2021-09-14T09:32:11.352768","PERIAPSIS":"546.844","RCS_SIZE":"LARGE","TLE_LINE2":"2 48139  53.0550 301.6979 0000566 137.8696 222.2337 15.06392766 25921","ARG_OF_PERICENTER":"137.8696"},{"EPOCH":"2021-09-14T11:56:47.972544","NORAD_CAT_ID":"48140","PERIAPSIS":"546.607","CENTER_NAME":"EARTH","MEAN_MOTION_DDOT":"0.0000000000000","REF_FRAME":"TEME","ARG_OF_PERICENTER":"121.0442","TLE_LINE2":"2 48140  53.0562 321.2461 0000921 121.0442 239.0637 15.06389938 25655","RCS_SIZE":"LARGE","CLASSIFICATION_TYPE":"U","OBJECT_NAME":"STARLINK-2483","ELEMENT_SET_NO":"999","INCLINATION":"53.0562","FILE":"3115650","LAUNCH_DATE":"2021-04-07","MEAN_ELEMENT_THEORY":"SGP4","PERIOD":"95.593","OBJECT_TYPE":"PAYLOAD","SITE":"AFETR","COUNTRY_CODE":"US","OBJECT_ID":"2021-027BA","MEAN_ANOMALY":"239.0637","MEAN_MOTION_DOT":"-0.00000433","GP_ID":"184723276","REV_AT_EPOCH":"2565","RA_OF_ASC_NODE":"321.2461","DECAY_DATE":null,"MEAN_MOTION":"15.06389938","APOAPSIS":"547.882","TLE_LINE1":"1 48140U 21027BA  21257.49777746 -.00000433  00000-0 -10182-4 0  9995","TIME_SYSTEM":"UTC","BSTAR":"-0.00001018200000","EPHEMERIS_TYPE":"0","ECCENTRICITY":"0.00009210","SEMIMAJOR_AXIS":"6925.379"},{"DECAY_DATE":null,"RA_OF_ASC_NODE":"320.8545","MEAN_MOTION":"15.06387744","REV_AT_EPOCH":"2568","EPHEMERIS_TYPE":"0","ECCENTRICITY":"0.00006200","SEMIMAJOR_AXIS":"6925.386","TLE_LINE1":"1 48141U 21027BB  21257.58717467 -.00000634  00000-0 -23709-4 0  9992","BSTAR":"-0.00002370900000","APOAPSIS":"547.680","TIME_SYSTEM":"UTC","MEAN_ANOMALY":"216.3467","COUNTRY_CODE":"US","OBJECT_ID":"2021-027BB","SITE":"AFETR","GP_ID":"184723526","MEAN_MOTION_DOT":"-0.00000634","INCLINATION":"53.0573","ELEMENT_SET_NO":"999","FILE":"3115650","OBJECT_NAME":"STARLINK-2484","CLASSIFICATION_TYPE":"U","MEAN_ELEMENT_THEORY":"SGP4","OBJECT_TYPE":"PAYLOAD","PERIOD":"95.593","LAUNCH_DATE":"2021-04-07","CENTER_NAME":"EARTH","REF_FRAME":"TEME","MEAN_MOTION_DDOT":"0.0000000000000","NORAD_CAT_ID":"48141","EPOCH":"2021-09-14T14:05:31.891488","PERIAPSIS":"546.822","RCS_SIZE":"LARGE","TLE_LINE2":"2 48141  53.0573 320.8545 0000620 143.7564 216.3467 15.06387744 25683","ARG_OF_PERICENTER":"143.7564"}];
